{
    "propagator":"sgp4", //default propagator options are 'sgp4','euler'
    "parameter_type":"tle", //options are 'tle' or 'orbit_elements'
    
    //tle is from celestrak.org, CANX-2 cubesat, August 10th (this cubesat has similar orbit to ALEASAT)
    //see orbit_demo.ipynb for orbit plots
    "tle": ["ALEASAT", 
    "1 32790U 08021H   24223.87636159  .00009415  00000+0  84365-3 0  9997",
    "2 32790  97.7725 187.4890 0012836 145.3495 214.8565 14.95949836883545"],

    "sgp4_coefficients" : {
        "bstar":2.8098e-05,     //bstar: drag coefficient (/earth radii)
        "ndot":6.969196665e-13, //ndot: ballistic coefficient (radians/minute^2)
    },

    "orbit_elements":{
        "e":0.1859667,       //ecco: eccentricity
        "argp":5.7904160274885, //argpo: argument of perigee (radians)
        "incl":0.5980929187319, //inclo: inclination (radians)
        "mean_anomaly":0.3373093125574, //mo: mean anomaly (radians)
        "mean_motion":0.0472294454407, //no_kozai: mean motion (radians/minute)
        "raan":6.0863854713832, //nodeo: right ascension of ascending node (radians)
    }
}